{"type": "FeatureCollection", "features": [ {"type": "Feature", "properties": {"norad_id": 45358, "name": "COSMOS 2545 (760)", "group": "gnss", "lat": 15.819817889077317, "lon": 131.52829904345919, "alt_km": 19126.081428313682, "timestamp": "2025-12-02T19:35:50.799936+00:00", "meta": {"OBJECT_NAME": "COSMOS 2545 (760)", "OBJECT_ID": "2020-018A", "EPOCH": "2025-11-30T06:11:57.120864", "MEAN_MOTION": 2.13102401, "ECCENTRICITY": 0.00119448, "INCLINATION": 64.4769, "RA_OF_ASC_NODE": 319.4079, "ARG_OF_PERICENTER": 248.2158, "MEAN_ANOMALY": 111.6706, "EPHEMERIS_TYPE": 0, "CLASSIFICATION_TYPE": "U", "NORAD_CAT_ID": 45358, "ELEMENT_SET_NO": 999, "REV_AT_EPOCH": 4442, "BSTAR": 0, "MEAN_MOTION_DOT": -2.2e-07, "MEAN_MOTION_DDOT": 0}, "tle": {"line1": "1 45358U 20018A   25334.25830001 -.00000022  00000+0  00000+0 0  9995", "line2": "2 45358  64.4769 319.4079 0011944 248.2158 111.6706  2.13102401 44425"}}, "geometry": {"type": "Point", "coordinates": [131.52829904345919, 15.819817889077317]}}, {"type": "Feature", "properties": {"norad_id": 45807, "name": "BEIDOU-3 G3 (C61)", "group": "gnss", "lat": 1.5122340791547049, "lon": 116.4096992229525, "alt_km": 35792.17280628645, "timestamp": "2025-12-02T19:35:50.799950+00:00", "meta": {"OBJECT_NAME": "BEIDOU-3 G3 (C61)", "OBJECT_ID": "2020-040A", "EPOCH": "2025-12-02T03:49:07.508352", "MEAN_MOTION": 1.00267316, "ECCENTRICITY": 0.00049793, "INCLINATION": 1.9634, "RA_OF_ASC_NODE": 66.509, "ARG_OF_PERICENTER": 305.9594, "MEAN_ANOMALY": 226.6097, "EPHEMERIS_TYPE": 0, "CLASSIFICATION_TYPE": "U", "NORAD_CAT_ID": 45807, "ELEMENT_SET_NO": 999, "REV_AT_EPOCH": 2009, "BSTAR": 0, "MEAN_MOTION_DOT": -3.33e-06, "MEAN_MOTION_DDOT": 0}, "tle": {"line1": "1 45807U 20040A   25336.15911468 -.00000333  00000+0  00000+0 0  9992", "line2": "2 45807   1.9634  66.5090 0004979 305.9594 226.6097  1.00267316 20098"}}, "geometry": {"type": "Point", "coordinates": [116.4096992229525, 1.5122340791547049]}}, {"type": "Feature", "properties": {"norad_id": 45854, "name": "GPS BIII-3  (PRN 23)", "group": "gnss", "lat": 16.193765456275337, "lon": 47.64884543779026, "alt_km": 20340.595975725217, "timestamp": "2025-12-02T19:35:50.799962+00:00", "meta": {"OBJECT_NAME": "GPS BIII-3  (PRN 23)", "OBJECT_ID": "2020-041A", "EPOCH": "2025-12-02T12:43:29.980704", "MEAN_MOTION": 2.00561721, "ECCENTRICITY": 0.0060247, "INCLINATION": 56.5397, "RA_OF_ASC_NODE": 36.584, "ARG_OF_PERICENTER": 202.9657, "MEAN_ANOMALY": 329.812, "EPHEMERIS_TYPE": 0, "CLASSIFICATION_TYPE": "U", "NORAD_CAT_ID": 45854, "ELEMENT_SET_NO": 999, "REV_AT_EPOCH": 4009, "BSTAR": 0, "MEAN_MOTION_DOT": -6.6e-07, "MEAN_MOTION_DDOT": 0}, "tle": {"line1": "1 45854U 20041A   25336.53020811 -.00000066  00000+0  00000+0 0  9993", "line2": "2 45854  56.5397  36.5840 0060247 202.9657 329.8120  2.00561721 40091"}}, "geometry": {"type": "Point", "coordinates": [47.64884543779026, 16.193765456275337]}}, {"type": "Feature", "properties": {"norad_id": 46114, "name": "GALAXY 30 (WAAS/PRN 135)", "group": "gnss", "lat": -0.03156470332248079, "lon": -119.14776020392739, "alt_km": 35775.846669358376, "timestamp": "2025-12-02T19:35:50.799973+00:00", "meta": {"OBJECT_NAME": "GALAXY 30 (WAAS/PRN 135)", "OBJECT_ID": "2020-056C", "EPOCH": "2025-12-02T10:45:38.709216", "MEAN_MOTION": 1.00272614, "ECCENTRICITY": 0.0002388, "INCLINATION": 0.013, "RA_OF_ASC_NODE": 294.9342, "ARG_OF_PERICENTER": 315.3424, "MEAN_ANOMALY": 217.6932, "EPHEMERIS_TYPE": 0, "CLASSIFICATION_TYPE": "U", "NORAD_CAT_ID": 46114, "ELEMENT_SET_NO": 999, "REV_AT_EPOCH": 1932, "BSTAR": 0, "MEAN_MOTION_DOT": 5.7e-07, "MEAN_MOTION_DDOT": 0}, "tle": {"line1": "1 46114U 20056C   25336.44836469  .00000057  00000+0  00000+0 0  9992", "line2": "2 46114   0.0130 294.9342 0002388 315.3424 217.6932  1.00272614 19326"}}, "geometry": {"type": "Point", "coordinates": [-119.14776020392739, -0.03156470332248079]}}, {"type": "Feature", "properties": {"norad_id": 46805, "name": "COSMOS 2547 (705K)", "group": "gnss", "lat": 16.53028387038274, "lon": -152.86574427941179, "alt_km": 19142.19993169318, "timestamp": "2025-12-02T19:35:50.799985+00:00", "meta": {"OBJECT_NAME": "COSMOS 2547 (705K)", "OBJECT_ID": "2020-075A", "EPOCH": "2025-11-30T21:58:22.930752", "MEAN_MOTION": 2.13099889, "ECCENTRICITY": 0.00063143, "INCLINATION": 64.5957, "RA_OF_ASC_NODE": 199.0914, "ARG_OF_PERICENTER": 229.6069, "MEAN_ANOMALY": 130.4292, "EPHEMERIS_TYPE": 0, "CLASSIFICATION_TYPE": "U", "NORAD_CAT_ID": 46805, "ELEMENT_SET_NO": 999, "REV_AT_EPOCH": 3968, "BSTAR": 0, "MEAN_MOTION_DOT": 9.8e-07, "MEAN_MOTION_DDOT": 0}, "tle": {"line1": "1 46805U 20075A   25334.91554318  .00000098  00000+0  00000+0 0  9995", "line2": "2 46805  64.5957 199.0914 0006314 229.6069 130.4292  2.13099889 39688"}}, "geometry": {"type": "Point", "coordinates": [-152.86574427941179, 16.53028387038274]}}, {"type": "Feature", "properties": {"norad_id": 46826, "name": "GPS BIII-4  (PRN 14)", "group": "gnss", "lat": -7.625755825281782, "lon": -146.8278773290601, "alt_km": 20325.00535075736, "timestamp": "2025-12-02T19:35:50.799998+00:00", "meta": {"OBJECT_NAME": "GPS BIII-4  (PRN 14)", "OBJECT_ID": "2020-078A", "EPOCH": "2025-11-12T03:01:29.190720", "MEAN_MOTION": 2.00567032, "ECCENTRICITY": 0.0063911, "INCLINATION": 54.0223, "RA_OF_ASC_NODE": 219.5836, "ARG_OF_PERICENTER": 203.4985, "MEAN_ANOMALY": 326.7754, "EPHEMERIS_TYPE": 0, "CLASSIFICATION_TYPE": "U", "NORAD_CAT_ID": 46826, "ELEMENT_SET_NO": 999, "REV_AT_EPOCH": 3715, "BSTAR": 0, "MEAN_MOTION_DOT": -3.4e-07, "MEAN_MOTION_DDOT": 0}, "tle": {"line1": "1 46826U 20078A   25316.12603230 -.00000034  00000+0  00000+0 0  9993", "line2": "2 46826  54.0223 219.5836 0063911 203.4985 326.7754  2.00567032 37154"}}, "geometry": {"type": "Point", "coordinates": [-146.8278773290601, -7.625755825281782]}}, {"type": "Feature", "properties": {"norad_id": 48859, "name": "GPS BIII-5  (PRN 11)", "group": "gnss", "lat": 3.3611101044747023, "lon": 158.01947361170272, "alt_km": 20147.32441559775, "timestamp": "2025-12-02T19:35:50.800012+00:00", "meta": {"OBJECT_NAME": "GPS BIII-5  (PRN 11)", "OBJECT_ID": "2021-054A", "EPOCH": "2025-11-30T17:12:22.003776", "MEAN_MOTION": 2.00553931, "ECCENTRICITY": 0.00246504, "INCLINATION": 55.2605, "RA_OF_ASC_NODE": 340.4377, "ARG_OF_PERICENTER": 232.9586, "MEAN_ANOMALY": 227.195, "EPHEMERIS_TYPE": 0, "CLASSIFICATION_TYPE": "U", "NORAD_CAT_ID": 48859, "ELEMENT_SET_NO": 999, "REV_AT_EPOCH": 3277, "BSTAR": 0, "MEAN_MOTION_DOT": -5.5e-07, "MEAN_MOTION_DDOT": 0}, "tle": {"line1": "1 48859U 21054A   25334.71692134 -.00000055  00000+0  00000+0 0  9995", "line2": "2 48859  55.2605 340.4377 0024650 232.9586 227.1950  2.00553931 32772"}}, "geometry": {"type": "Point", "coordinates": [158.01947361170272, 3.3611101044747023]}}, {"type": "Feature", "properties": {"norad_id": 49336, "name": "QZS-1R (QZSS/PRN 196)", "group": "gnss", "lat": 32.489559938611315, "lon": 139.90760054355857, "alt_km": 38517.525250719926, "timestamp": "2025-12-02T19:35:50.800024+00:00", "meta": {"OBJECT_NAME": "QZS-1R (QZSS/PRN 196)", "OBJECT_ID": "2021-096A", "EPOCH": "2025-12-01T04:08:48.475392", "MEAN_MOTION": 1.0026089, "ECCENTRICITY": 0.0753298, "INCLINATION": 37.0524, "RA_OF_ASC_NODE": 82.5332, "ARG_OF_PERICENTER": 271.0716, "MEAN_ANOMALY": 274.2635, "EPHEMERIS_TYPE": 0, "CLASSIFICATION_TYPE": "U", "NORAD_CAT_ID": 49336, "ELEMENT_SET_NO": 999, "REV_AT_EPOCH": 1502, "BSTAR": 0, "MEAN_MOTION_DOT": -2.17e-06, "MEAN_MOTION_DDOT": 0}, "tle": {"line1": "1 49336U 21096A   25335.17278328 -.00000217  00000+0  00000+0 0  9998", "line2": "2 49336  37.0524  82.5332 0753298 271.0716 274.2635  1.00260890 15022"}}, "geometry": {"type": "Point", "coordinates": [139.90760054355857, 32.489559938611315]}}, {"type": "Feature", "properties": {"norad_id": 49809, "name": "GSAT0223 (GALILEO 27)", "group": "gnss", "lat": -19.1186883408324, "lon": 179.89832308313316, "alt_km": 23214.722539067407, "timestamp": "2025-12-02T19:35:50.800038+00:00", "meta": {"OBJECT_NAME": "GSAT0223 (GALILEO 27)", "OBJECT_ID": "2021-116A", "EPOCH": "2025-12-01T07:17:38.669856", "MEAN_MOTION": 1.70475545, "ECCENTRICITY": 0.00047526, "INCLINATION": 57.2221, "RA_OF_ASC_NODE": 347.0231, "ARG_OF_PERICENTER": 247.908, "MEAN_ANOMALY": 106.7158, "EPHEMERIS_TYPE": 0, "CLASSIFICATION_TYPE": "U", "NORAD_CAT_ID": 49809, "ELEMENT_SET_NO": 999, "REV_AT_EPOCH": 2480, "BSTAR": 0, "MEAN_MOTION_DOT": -5.9e-07, "MEAN_MOTION_DDOT": 0}, "tle": {"line1": "1 49809U 21116A   25335.30391979 -.00000059  00000+0  00000+0 0  9993", "line2": "2 49809  57.2221 347.0231 0004752 247.9080 106.7158  1.70475545 24809"}}, "geometry": {"type": "Point", "coordinates": [179.89832308313316, -19.1186883408324]}}, {"type": "Feature", "properties": {"norad_id": 49810, "name": "GSAT0224 (GALILEO 28)", "group": "gnss", "lat": -36.04060247033926, "lon": -40.974222443834776, "alt_km": 23222.097918839245, "timestamp": "2025-12-02T19:35:50.800052+00:00", "meta": {"OBJECT_NAME": "GSAT0224 (GALILEO 28)", "OBJECT_ID": "2021-116B", "EPOCH": "2025-11-22T08:02:15.403200", "MEAN_MOTION": 1.70476295, "ECCENTRICITY": 0.00038769, "INCLINATION": 57.2249, "RA_OF_ASC_NODE": 347.264, "ARG_OF_PERICENTER": 247.2257, "MEAN_ANOMALY": 115.5015, "EPHEMERIS_TYPE": 0, "CLASSIFICATION_TYPE": "U", "NORAD_CAT_ID": 49810, "ELEMENT_SET_NO": 999, "REV_AT_EPOCH": 2468, "BSTAR": 0, "MEAN_MOTION_DOT": -6.8e-07, "MEAN_MOTION_DDOT": 0}, "tle": {"line1": "1 49810U 21116B   25326.33490050 -.00000068  00000+0  00000+0 0  9998", "line2": "2 49810  57.2249 347.2640 0003876 247.2257 115.5015  1.70476295 24681"}}, "geometry": {"type": "Point", "coordinates": [-40.974222443834776, -36.04060247033926]}}]}